start=new Date('2022-12-05T00:00:00.000Z').valueOf();
sats=[{"MEAN_MOTION":"15.06397074","APOAPSIS":"548.725","EPOCH":"2022-12-04T16:12:58.386528","INCLINATION":"53.0551","TIME_SYSTEM":"UTC","GP_ID":"219526100","FILE":"3681283","REV_AT_EPOCH":"12497","MEAN_ANOMALY":"312.7652","NORAD_CAT_ID":"46333","ELEMENT_SET_NO":"999","PERIOD":"95.592","OBJECT_ID":"2020-062J","EPHEMERIS_TYPE":"0","TLE_LINE1":"1 46333U 20062J   22338.67567577  .00002182  00000-0  16535-3 0  9993","DECAY_DATE":null,"OBJECT_NAME":"STARLINK-1723","MEAN_MOTION_DOT":"0.00002182","CENTER_NAME":"EARTH","REF_FRAME":"TEME","SITE":"AFETR","TLE_LINE2":"2 46333  53.0551 323.2863 0002170  47.3520 312.7652 15.06397074124979","SEMIMAJOR_AXIS":"6925.358","ARG_OF_PERICENTER":"47.3520","PERIAPSIS":"545.720","COUNTRY_CODE":"US","BSTAR":"0.00016535000000","RA_OF_ASC_NODE":"323.2863","RCS_SIZE":"LARGE","CLASSIFICATION_TYPE":"U","ECCENTRICITY":"0.00021700","OBJECT_TYPE":"PAYLOAD","MEAN_ELEMENT_THEORY":"SGP4","MEAN_MOTION_DDOT":"0.0000000000000","LAUNCH_DATE":"2020-09-03"},{"SEMIMAJOR_AXIS":"6925.316","SITE":"AFETR","TLE_LINE2":"2 46334  53.0569 305.0540 0001828  51.4787 308.6366 15.06410784125026","CENTER_NAME":"EARTH","MEAN_MOTION_DOT":"-0.00004012","REF_FRAME":"TEME","BSTAR":"-0.00025051000000","RA_OF_ASC_NODE":"305.0540","PERIAPSIS":"545.915","ARG_OF_PERICENTER":"51.4787","COUNTRY_CODE":"US","ECCENTRICITY":"0.00018280","CLASSIFICATION_TYPE":"U","RCS_SIZE":"LARGE","OBJECT_TYPE":"PAYLOAD","LAUNCH_DATE":"2020-09-03","MEAN_ELEMENT_THEORY":"SGP4","MEAN_MOTION_DDOT":"0.0000000000000","TIME_SYSTEM":"UTC","INCLINATION":"53.0569","EPOCH":"2022-12-04T08:17:58.390080","APOAPSIS":"548.446","MEAN_MOTION":"15.06410784","MEAN_ANOMALY":"308.6366","REV_AT_EPOCH":"12502","GP_ID":"219518476","FILE":"3681207","PERIOD":"95.591","ELEMENT_SET_NO":"999","OBJECT_ID":"2020-062K","NORAD_CAT_ID":"46334","DECAY_DATE":null,"TLE_LINE1":"1 46334U 20062K   22338.34581470 -.00004012  00000-0 -25051-3 0  9995","OBJECT_NAME":"STARLINK-1725","EPHEMERIS_TYPE":"0"},{"MEAN_ANOMALY":"309.0690","REV_AT_EPOCH":"12494","GP_ID":"219526123","FILE":"3681288","TIME_SYSTEM":"UTC","INCLINATION":"53.0534","APOAPSIS":"548.705","EPOCH":"2022-12-04T10:33:16.789824","MEAN_MOTION":"15.06392042","DECAY_DATE":null,"TLE_LINE1":"1 46335U 20062L   22338.43977766 -.00000395  00000-0 -75777-5 0  9995","OBJECT_NAME":"STARLINK-1727","EPHEMERIS_TYPE":"0","PERIOD":"95.593","ELEMENT_SET_NO":"999","OBJECT_ID":"2020-062L","NORAD_CAT_ID":"46335","BSTAR":"-0.00000757770000","RA_OF_ASC_NODE":"324.3600","PERIAPSIS":"545.770","ARG_OF_PERICENTER":"51.0487","COUNTRY_CODE":"US","SEMIMAJOR_AXIS":"6925.373","SITE":"AFETR","TLE_LINE2":"2 46335  53.0534 324.3600 0002119  51.0487 309.0690 15.06392042124948","CENTER_NAME":"EARTH","MEAN_MOTION_DOT":"-0.00000395","REF_FRAME":"TEME","LAUNCH_DATE":"2020-09-03","MEAN_ELEMENT_THEORY":"SGP4","MEAN_MOTION_DDOT":"0.0000000000000","ECCENTRICITY":"0.00021190","CLASSIFICATION_TYPE":"U","RCS_SIZE":"LARGE","OBJECT_TYPE":"PAYLOAD"},{"COUNTRY_CODE":"US","PERIAPSIS":"545.834","ARG_OF_PERICENTER":"54.3036","RA_OF_ASC_NODE":"304.9789","BSTAR":"0.00003195700000","REF_FRAME":"TEME","CENTER_NAME":"EARTH","MEAN_MOTION_DOT":"0.00000194","SEMIMAJOR_AXIS":"6925.358","TLE_LINE2":"2 46336  53.0562 304.9789 0002005  54.3036 305.8139 15.06396915125016","SITE":"AFETR","MEAN_MOTION_DDOT":"0.0000000000000","MEAN_ELEMENT_THEORY":"SGP4","LAUNCH_DATE":"2020-09-03","OBJECT_TYPE":"PAYLOAD","ECCENTRICITY":"0.00020050","RCS_SIZE":"LARGE","CLASSIFICATION_TYPE":"U","FILE":"3681207","GP_ID":"219517976","MEAN_ANOMALY":"305.8139","REV_AT_EPOCH":"12501","MEAN_MOTION":"15.06396915","INCLINATION":"53.0562","TIME_SYSTEM":"UTC","APOAPSIS":"548.612","EPOCH":"2022-12-04T07:08:55.790016","EPHEMERIS_TYPE":"0","OBJECT_NAME":"STARLINK-1738","DECAY_DATE":null,"TLE_LINE1":"1 46336U 20062M   22338.29786794  .00000194  00000-0  31957-4 0  9995","NORAD_CAT_ID":"46336","OBJECT_ID":"2020-062M","PERIOD":"95.592","ELEMENT_SET_NO":"999"},{"MEAN_MOTION":"15.06403450","INCLINATION":"53.0553","TIME_SYSTEM":"UTC","APOAPSIS":"548.660","EPOCH":"2022-12-04T07:30:09.245664","FILE":"3681207","GP_ID":"219518226","MEAN_ANOMALY":"310.3213","REV_AT_EPOCH":"12502","NORAD_CAT_ID":"46337","OBJECT_ID":"2020-062N","PERIOD":"95.592","ELEMENT_SET_NO":"999","EPHEMERIS_TYPE":"0","OBJECT_NAME":"STARLINK-1750","DECAY_DATE":null,"TLE_LINE1":"1 46337U 20062N   22338.31260701  .00000717  00000-0  67071-4 0  9991","REF_FRAME":"TEME","CENTER_NAME":"EARTH","MEAN_MOTION_DOT":"0.00000717","SEMIMAJOR_AXIS":"6925.338","SITE":"AFETR","TLE_LINE2":"2 46337  53.0553 304.9286 0002104  49.7959 310.3213 15.06403450125029","COUNTRY_CODE":"US","PERIAPSIS":"545.746","ARG_OF_PERICENTER":"49.7959","RA_OF_ASC_NODE":"304.9286","BSTAR":"0.00006707100000","OBJECT_TYPE":"PAYLOAD","ECCENTRICITY":"0.00021040","CLASSIFICATION_TYPE":"U","RCS_SIZE":"LARGE","MEAN_MOTION_DDOT":"0.0000000000000","MEAN_ELEMENT_THEORY":"SGP4","LAUNCH_DATE":"2020-09-03"},{"CENTER_NAME":"EARTH","MEAN_MOTION_DOT":"0.00000698","REF_FRAME":"TEME","SEMIMAJOR_AXIS":"6925.363","SITE":"AFETR","TLE_LINE2":"2 46338  53.0540 324.7075 0001623  42.6545 317.4569 15.06395238124744","PERIAPSIS":"546.104","ARG_OF_PERICENTER":"42.6545","COUNTRY_CODE":"US","BSTAR":"0.00006578200000","RA_OF_ASC_NODE":"324.7075","ECCENTRICITY":"0.00016230","CLASSIFICATION_TYPE":"U","RCS_SIZE":"LARGE","OBJECT_TYPE":"PAYLOAD","MEAN_MOTION_DDOT":"0.0000000000000","MEAN_ELEMENT_THEORY":"SGP4","LAUNCH_DATE":"2020-09-03","MEAN_MOTION":"15.06395238","INCLINATION":"53.0540","TIME_SYSTEM":"UTC","EPOCH":"2022-12-04T08:41:48.539904","APOAPSIS":"548.352","GP_ID":"219518975","FILE":"3681207","MEAN_ANOMALY":"317.4569","REV_AT_EPOCH":"12474","NORAD_CAT_ID":"46338","PERIOD":"95.592","ELEMENT_SET_NO":"999","OBJECT_ID":"2020-062P","EPHEMERIS_TYPE":"0","DECAY_DATE":null,"TLE_LINE1":"1 46338U 20062P   22338.36236736  .00000698  00000-0  65782-4 0  9993","OBJECT_NAME":"STARLINK-1752"},{"BSTAR":"0.00013876000000","RA_OF_ASC_NODE":"324.5338","ARG_OF_PERICENTER":"57.0576","PERIAPSIS":"546.056","COUNTRY_CODE":"US","SITE":"AFETR","TLE_LINE2":"2 46340  53.0568 324.5338 0001680  57.0576 303.0574 15.06398111124744","SEMIMAJOR_AXIS":"6925.354","MEAN_MOTION_DOT":"0.00001786","CENTER_NAME":"EARTH","REF_FRAME":"TEME","LAUNCH_DATE":"2020-09-03","MEAN_MOTION_DDOT":"0.0000000000000","MEAN_ELEMENT_THEORY":"SGP4","CLASSIFICATION_TYPE":"U","RCS_SIZE":"LARGE","ECCENTRICITY":"0.00016800","OBJECT_TYPE":"PAYLOAD","REV_AT_EPOCH":"12474","MEAN_ANOMALY":"303.0574","GP_ID":"219517226","FILE":"3681207","APOAPSIS":"548.383","EPOCH":"2022-12-04T09:40:12.097056","TIME_SYSTEM":"UTC","INCLINATION":"53.0568","MEAN_MOTION":"15.06398111","TLE_LINE1":"1 46340U 20062R   22338.40291779  .00001786  00000-0  13876-3 0  9994","DECAY_DATE":null,"OBJECT_NAME":"STARLINK-1759","EPHEMERIS_TYPE":"0","ELEMENT_SET_NO":"999","PERIOD":"95.592","OBJECT_ID":"2020-062R","NORAD_CAT_ID":"46340"},{"FILE":"3681207","GP_ID":"219517476","MEAN_ANOMALY":"314.8915","REV_AT_EPOCH":"12502","MEAN_MOTION":"15.06407685","TIME_SYSTEM":"UTC","INCLINATION":"53.0548","APOAPSIS":"548.581","EPOCH":"2022-12-04T06:37:04.737792","EPHEMERIS_TYPE":"0","OBJECT_NAME":"STARLINK-1760","DECAY_DATE":null,"TLE_LINE1":"1 46341U 20062S   22338.27574928 -.00002936  00000-0 -17820-3 0  9993","NORAD_CAT_ID":"46341","OBJECT_ID":"2020-062S","PERIOD":"95.592","ELEMENT_SET_NO":"999","COUNTRY_CODE":"US","PERIAPSIS":"545.799","ARG_OF_PERICENTER":"45.2237","RA_OF_ASC_NODE":"305.0945","BSTAR":"-0.00017820000000","REF_FRAME":"TEME","CENTER_NAME":"EARTH","MEAN_MOTION_DOT":"-0.00002936","SEMIMAJOR_AXIS":"6925.325","SITE":"AFETR","TLE_LINE2":"2 46341  53.0548 305.0945 0002008  45.2237 314.8915 15.06407685125027","MEAN_MOTION_DDOT":"0.0000000000000","MEAN_ELEMENT_THEORY":"SGP4","LAUNCH_DATE":"2020-09-03","OBJECT_TYPE":"PAYLOAD","ECCENTRICITY":"0.00020080","RCS_SIZE":"LARGE","CLASSIFICATION_TYPE":"U"},{"REF_FRAME":"TEME","MEAN_MOTION_DOT":"0.00000135","CENTER_NAME":"EARTH","TLE_LINE2":"2 46342  53.0553 324.5917 0001876  49.1534 310.9617 15.06394488124755","SITE":"AFETR","SEMIMAJOR_AXIS":"6925.365","COUNTRY_CODE":"US","ARG_OF_PERICENTER":"49.1534","PERIAPSIS":"545.931","RA_OF_ASC_NODE":"324.5917","BSTAR":"0.00002798300000","OBJECT_TYPE":"PAYLOAD","CLASSIFICATION_TYPE":"U","RCS_SIZE":"LARGE","ECCENTRICITY":"0.00018760","MEAN_ELEMENT_THEORY":"SGP4","MEAN_MOTION_DDOT":"0.0000000000000","LAUNCH_DATE":"2020-09-03","MEAN_MOTION":"15.06394488","APOAPSIS":"548.530","EPOCH":"2022-12-04T09:18:58.563648","INCLINATION":"53.0553","TIME_SYSTEM":"UTC","FILE":"3681207","GP_ID":"219518726","REV_AT_EPOCH":"12475","MEAN_ANOMALY":"310.9617","NORAD_CAT_ID":"46342","OBJECT_ID":"2020-062T","ELEMENT_SET_NO":"999","PERIOD":"95.592","EPHEMERIS_TYPE":"0","OBJECT_NAME":"STARLINK-1762","TLE_LINE1":"1 46342U 20062T   22338.38817782  .00000135  00000-0  27983-4 0  9993","DECAY_DATE":null},{"LAUNCH_DATE":"2020-09-03","MEAN_ELEMENT_THEORY":"SGP4","MEAN_MOTION_DDOT":"0.0000000000000","OBJECT_TYPE":"PAYLOAD","ECCENTRICITY":"0.00015560","CLASSIFICATION_TYPE":"U","RCS_SIZE":"LARGE","RA_OF_ASC_NODE":"303.4139","BSTAR":"0.00010077000000","COUNTRY_CODE":"US","PERIAPSIS":"546.113","ARG_OF_PERICENTER":"61.1891","SEMIMAJOR_AXIS":"6925.326","TLE_LINE2":"2 46343  53.0549 303.4139 0001556  61.1891 298.9254 15.06407441125250","SITE":"AFETR","REF_FRAME":"TEME","CENTER_NAME":"EARTH","MEAN_MOTION_DOT":"0.00001220","OBJECT_NAME":"STARLINK-1764","DECAY_DATE":null,"TLE_LINE1":"1 46343U 20062U   22338.64801797  .00001220  00000-0  10077-3 0  9993","EPHEMERIS_TYPE":"0","OBJECT_ID":"2020-062U","PERIOD":"95.592","ELEMENT_SET_NO":"999","NORAD_CAT_ID":"46343","MEAN_ANOMALY":"298.9254","REV_AT_EPOCH":"12525","FILE":"3681289","GP_ID":"219526648","TIME_SYSTEM":"UTC","INCLINATION":"53.0549","APOAPSIS":"548.268","EPOCH":"2022-12-04T15:33:08.752608","MEAN_MOTION":"15.06407441"}];
